[{"OBJECT_NAME":"MONOLITH","OBJECT_ID":"2021-068A","EPOCH":"2026-03-09T13:05:30.210720","MEAN_MOTION":15.08010119,"ECCENTRICITY":0.00026796,"INCLINATION":37.022,"RA_OF_ASC_NODE":141.2957,"ARG_OF_PERICENTER":131.6464,"MEAN_ANOMALY":228.4511,"EPHEMERIS_TYPE":0,"CLASSIFICATION_TYPE":"U","NORAD_CAT_ID":49052,"ELEMENT_SET_NO":999,"REV_AT_EPOCH":25222,"BSTAR":0.00053655804,"MEAN_MOTION_DOT":8.348e-5,"MEAN_MOTION_DDOT":0},{"OBJECT_NAME":"STARLINK-3707","OBJECT_ID":"2022-029AX","EPOCH":"2026-03-09T09:40:01.760160","MEAN_MOTION":15.08863217,"ECCENTRICITY":0.00012015,"INCLINATION":53.217,"RA_OF_ASC_NODE":70.4056,"ARG_OF_PERICENTER":91.3981,"MEAN_ANOMALY":268.7149,"EPHEMERIS_TYPE":0,"CLASSIFICATION_TYPE":"U","NORAD_CAT_ID":52133,"ELEMENT_SET_NO":999,"REV_AT_EPOCH":22089,"BSTAR":0.00020923875,"MEAN_MOTION_DOT":3.046e-5,"MEAN_MOTION_DDOT":0}]
